CCSDS_OMM_VERS = 2.0
CREATION_DATE  = 
ORIGINATOR     = 

OBJECT_NAME    = HULIANWANG DIGUI-142
OBJECT_ID      = 2026-007F
CENTER_NAME    = EARTH
REF_FRAME      = TEME
TIME_SYSTEM    = UTC
MEAN_ELEMENT_THEORY = SGP/SGP4

EPOCH          = 2026-02-10T10:56:32.218944
MEAN_MOTION    = 13.71366407
ECCENTRICITY   = .00005973
INCLINATION    = 50.0167
RA_OF_ASC_NODE = 184.6180
ARG_OF_PERICENTER = 336.1670
MEAN_ANOMALY   = 23.9193

EPHEMERIS_TYPE = 0
CLASSIFICATION_TYPE = U
NORAD_CAT_ID   = 67440
ELEMENT_SET_NO = 999
REV_AT_EPOCH   = 386
BSTAR          = .103007E-4
MEAN_MOTION_DOT = -.13E-5
MEAN_MOTION_DDOT = 0

CCSDS_OMM_VERS = 2.0
CREATION_DATE  = 
ORIGINATOR     = 

OBJECT_NAME    = HULIANWANG DIGUI-143
OBJECT_ID      = 2026-007G
CENTER_NAME    = EARTH
REF_FRAME      = TEME
TIME_SYSTEM    = UTC
MEAN_ELEMENT_THEORY = SGP/SGP4

EPOCH          = 2026-02-09T19:06:52.574976
MEAN_MOTION    = 13.72021648
ECCENTRICITY   = .00014054
INCLINATION    = 50.0081
RA_OF_ASC_NODE = 187.1189
ARG_OF_PERICENTER = 350.4084
MEAN_ANOMALY   = 9.6780

EPHEMERIS_TYPE = 0
CLASSIFICATION_TYPE = U
NORAD_CAT_ID   = 67441
ELEMENT_SET_NO = 999
REV_AT_EPOCH   = 377
BSTAR          = .15915681E-3
MEAN_MOTION_DOT = .6E-7
MEAN_MOTION_DDOT = 0

CCSDS_OMM_VERS = 2.0
CREATION_DATE  = 
ORIGINATOR     = 

OBJECT_NAME    = HULIANWANG DIGUI-144
OBJECT_ID      = 2026-007H
CENTER_NAME    = EARTH
REF_FRAME      = TEME
TIME_SYSTEM    = UTC
MEAN_ELEMENT_THEORY = SGP/SGP4

EPOCH          = 2026-02-07T09:25:24.076128
MEAN_MOTION    = 13.75792192
ECCENTRICITY   = .00019321
INCLINATION    = 50.0090
RA_OF_ASC_NODE = 196.4111
ARG_OF_PERICENTER = 359.9166
MEAN_ANOMALY   = 0.1726

EPHEMERIS_TYPE = 0
CLASSIFICATION_TYPE = U
NORAD_CAT_ID   = 67442
ELEMENT_SET_NO = 999
REV_AT_EPOCH   = 344
BSTAR          = .15225462E-3
MEAN_MOTION_DOT = .7E-7
MEAN_MOTION_DDOT = 0

CCSDS_OMM_VERS = 2.0
CREATION_DATE  = 
ORIGINATOR     = 

OBJECT_NAME    = HULIANWANG DIGUI-145
OBJECT_ID      = 2026-007J
CENTER_NAME    = EARTH
REF_FRAME      = TEME
TIME_SYSTEM    = UTC
MEAN_ELEMENT_THEORY = SGP/SGP4

EPOCH          = 2026-02-10T08:55:03.063936
MEAN_MOTION    = 13.72189359
ECCENTRICITY   = .00041866
INCLINATION    = 50.0006
RA_OF_ASC_NODE = 184.8170
ARG_OF_PERICENTER = 143.8873
MEAN_ANOMALY   = 216.2301

EPHEMERIS_TYPE = 0
CLASSIFICATION_TYPE = U
NORAD_CAT_ID   = 67443
ELEMENT_SET_NO = 999
REV_AT_EPOCH   = 385
BSTAR          = .16117388E-3
MEAN_MOTION_DOT = .8E-7
MEAN_MOTION_DDOT = 0

CCSDS_OMM_VERS = 2.0
CREATION_DATE  = 
ORIGINATOR     = 

OBJECT_NAME    = CZ-8A R/B
OBJECT_ID      = 2026-007K
CENTER_NAME    = EARTH
REF_FRAME      = TEME
TIME_SYSTEM    = UTC
MEAN_ELEMENT_THEORY = SGP/SGP4

EPOCH          = 2026-02-10T18:06:32.466816
MEAN_MOTION    = 14.13553226
ECCENTRICITY   = .00922437
INCLINATION    = 50.0092
RA_OF_ASC_NODE = 178.1390
ARG_OF_PERICENTER = 179.4875
MEAN_ANOMALY   = 180.6143

EPHEMERIS_TYPE = 0
CLASSIFICATION_TYPE = U
NORAD_CAT_ID   = 67444
ELEMENT_SET_NO = 999
REV_AT_EPOCH   = 397
BSTAR          = .14450326E-3
MEAN_MOTION_DOT = .13E-5
MEAN_MOTION_DDOT = 0

CCSDS_OMM_VERS = 2.0
CREATION_DATE  = 
ORIGINATOR     = 

OBJECT_NAME    = STARLINK-36542
OBJECT_ID      = 2026-008A
CENTER_NAME    = EARTH
REF_FRAME      = TEME
TIME_SYSTEM    = UTC
MEAN_ELEMENT_THEORY = SGP/SGP4

EPOCH          = 2026-02-10T22:00:00.999936
MEAN_MOTION    = 15.50584506
ECCENTRICITY   = .00008521
INCLINATION    = 43.0001
RA_OF_ASC_NODE = 357.3898
ARG_OF_PERICENTER = 257.2613
MEAN_ANOMALY   = 209.9026

EPHEMERIS_TYPE = 0
CLASSIFICATION_TYPE = U
NORAD_CAT_ID   = 67445
ELEMENT_SET_NO = 999
REV_AT_EPOCH   = 549
BSTAR          = -.73198559E-3
MEAN_MOTION_DOT = -.43054E-3
MEAN_MOTION_DDOT = 0

CCSDS_OMM_VERS = 2.0
CREATION_DATE  = 
ORIGINATOR     = 

OBJECT_NAME    = STARLINK-36539
OBJECT_ID      = 2026-008B
CENTER_NAME    = EARTH
REF_FRAME      = TEME
TIME_SYSTEM    = UTC
MEAN_ELEMENT_THEORY = SGP/SGP4

EPOCH          = 2026-02-10T22:00:00.999936
MEAN_MOTION    = 15.47735857
ECCENTRICITY   = .00010041
INCLINATION    = 42.9998
RA_OF_ASC_NODE = 357.3008
ARG_OF_PERICENTER = 246.0027
MEAN_ANOMALY   = 257.2136

EPHEMERIS_TYPE = 0
CLASSIFICATION_TYPE = U
NORAD_CAT_ID   = 67446
ELEMENT_SET_NO = 999
REV_AT_EPOCH   = 549
BSTAR          = -.44098611E-1
MEAN_MOTION_DOT = -.2078673E-1
MEAN_MOTION_DDOT = 0

CCSDS_OMM_VERS = 2.0
CREATION_DATE  = 
ORIGINATOR     = 

OBJECT_NAME    = STARLINK-36440
OBJECT_ID      = 2026-008C
CENTER_NAME    = EARTH
REF_FRAME      = TEME
TIME_SYSTEM    = UTC
MEAN_ELEMENT_THEORY = SGP/SGP4

EPOCH          = 2026-02-10T22:00:00.999936
MEAN_MOTION    = 15.50579044
ECCENTRICITY   = .00009812
INCLINATION    = 43.0005
RA_OF_ASC_NODE = 356.8838
ARG_OF_PERICENTER = 250.0489
MEAN_ANOMALY   = 62.5875

EPHEMERIS_TYPE = 0
CLASSIFICATION_TYPE = U
NORAD_CAT_ID   = 67447
ELEMENT_SET_NO = 999
REV_AT_EPOCH   = 549
BSTAR          = -.49184249E-3
MEAN_MOTION_DOT = -.29087E-3
MEAN_MOTION_DDOT = 0

CCSDS_OMM_VERS = 2.0
CREATION_DATE  = 
ORIGINATOR     = 

OBJECT_NAME    = STARLINK-36423
OBJECT_ID      = 2026-008D
CENTER_NAME    = EARTH
REF_FRAME      = TEME
TIME_SYSTEM    = UTC
MEAN_ELEMENT_THEORY = SGP/SGP4

EPOCH          = 2026-02-10T00:05:54.424896
MEAN_MOTION    = 15.50626988
ECCENTRICITY   = .00009945
INCLINATION    = 43.0001
RA_OF_ASC_NODE = 2.8396
ARG_OF_PERICENTER = 232.8859
MEAN_ANOMALY   = 127.1911

EPHEMERIS_TYPE = 0
CLASSIFICATION_TYPE = U
NORAD_CAT_ID   = 67448
ELEMENT_SET_NO = 999
REV_AT_EPOCH   = 532
BSTAR          = .1228188E-2
MEAN_MOTION_DOT = .72504E-3
MEAN_MOTION_DDOT = 0

CCSDS_OMM_VERS = 2.0
CREATION_DATE  = 
ORIGINATOR     = 

OBJECT_NAME    = STARLINK-36519
OBJECT_ID      = 2026-008E
CENTER_NAME    = EARTH
REF_FRAME      = TEME
TIME_SYSTEM    = UTC
MEAN_ELEMENT_THEORY = SGP/SGP4

EPOCH          = 2026-02-10T22:00:00.999936
MEAN_MOTION    = 15.49010998
ECCENTRICITY   = .0001241
INCLINATION    = 43.0003
RA_OF_ASC_NODE = 357.0079
ARG_OF_PERICENTER = 254.3921
MEAN_ANOMALY   = 7.3315

EPHEMERIS_TYPE = 0
CLASSIFICATION_TYPE = U
NORAD_CAT_ID   = 67449
ELEMENT_SET_NO = 999
REV_AT_EPOCH   = 549
BSTAR          = -.41793174E-1
MEAN_MOTION_DOT = -.2063009E-1
MEAN_MOTION_DDOT = 0

CCSDS_OMM_VERS = 2.0
CREATION_DATE  = 
ORIGINATOR     = 

OBJECT_NAME    = STARLINK-36525
OBJECT_ID      = 2026-008F
CENTER_NAME    = EARTH
REF_FRAME      = TEME
TIME_SYSTEM    = UTC
MEAN_ELEMENT_THEORY = SGP/SGP4

EPOCH          = 2026-02-10T22:00:00.999936
MEAN_MOTION    = 15.50577609
ECCENTRICITY   = .00013717
INCLINATION    = 43.0001
RA_OF_ASC_NODE = 357.3752
ARG_OF_PERICENTER = 267.5405
MEAN_ANOMALY   = 205.1468

EPHEMERIS_TYPE = 0
CLASSIFICATION_TYPE = U
NORAD_CAT_ID   = 67450
ELEMENT_SET_NO = 999
REV_AT_EPOCH   = 549
BSTAR          = -.45578483E-3
MEAN_MOTION_DOT = -.26986E-3
MEAN_MOTION_DDOT = 0

CCSDS_OMM_VERS = 2.0
CREATION_DATE  = 
ORIGINATOR     = 

OBJECT_NAME    = STARLINK-36511
OBJECT_ID      = 2026-008G
CENTER_NAME    = EARTH
REF_FRAME      = TEME
TIME_SYSTEM    = UTC
MEAN_ELEMENT_THEORY = SGP/SGP4

EPOCH          = 2026-02-10T00:03:06.194592
MEAN_MOTION    = 15.50587388
ECCENTRICITY   = .00011706
INCLINATION    = 42.9999
RA_OF_ASC_NODE = 2.8273
ARG_OF_PERICENTER = 266.1069
MEAN_ANOMALY   = 93.9657

EPHEMERIS_TYPE = 0
CLASSIFICATION_TYPE = U
NORAD_CAT_ID   = 67451
ELEMENT_SET_NO = 999
REV_AT_EPOCH   = 532
BSTAR          = .15481035E-2
MEAN_MOTION_DOT = .91574E-3
MEAN_MOTION_DDOT = 0

