HULIANWANG DIGUI-142    
1 67440U 26007F   26041.45592846 -.00000130  00000+0  10301-4 0  9995
2 67440  50.0167 184.6180 0000597 336.1670  23.9193 13.71366407  3869
HULIANWANG DIGUI-143    
1 67441U 26007G   26040.79644184  .00000006  00000+0  15916-3 0  9992
2 67441  50.0081 187.1189 0001405 350.4084   9.6780 13.72021648  3778
HULIANWANG DIGUI-144    
1 67442U 26007H   26038.39263977  .00000007  00000+0  15225-3 0  9997
2 67442  50.0090 196.4111 0001932 359.9166   0.1726 13.75792192  3449
HULIANWANG DIGUI-145    
1 67443U 26007J   26041.37156324  .00000008  00000+0  16117-3 0  9999
2 67443  50.0006 184.8170 0004186 143.8873 216.2301 13.72189359  3858
CZ-8A R/B               
1 67444U 26007K   26041.75454244  .00000130  00000+0  14450-3 0  9998
2 67444  50.0092 178.1390 0092243 179.4875 180.6143 14.13553226  3977
STARLINK-36542          
1 67445U 26008A   26041.91667824 -.00043054  00000+0 -73199-3 0  9997
2 67445  43.0001 357.3898 0000852 257.2613 209.9026 15.50584506  5495
STARLINK-36539          
1 67446U 26008B   26041.91667824 -.02078673  00000+0 -44099-1 0  9990
2 67446  42.9998 357.3008 0001004 246.0027 257.2136 15.47735857  5498
STARLINK-36440          
1 67447U 26008C   26041.91667824 -.00029087  00000+0 -49184-3 0  9996
2 67447  43.0005 356.8838 0000981 250.0489  62.5875 15.50579044  5490
STARLINK-36423          
1 67448U 26008D   26041.00410214  .00072504  00000+0  12282-2 0  9994
2 67448  43.0001   2.8396 0000994 232.8859 127.1911 15.50626988  5328
STARLINK-36519          
1 67449U 26008E   26041.91667824 -.02063009  00000+0 -41793-1 0  9998
2 67449  43.0003 357.0079 0001241 254.3921   7.3315 15.49010998  5490
STARLINK-36525          
1 67450U 26008F   26041.91667824 -.00026986  00000+0 -45578-3 0  9998
2 67450  43.0001 357.3752 0001371 267.5405 205.1468 15.50577609  5494
STARLINK-36511          
1 67451U 26008G   26041.00215503  .00091574  00000+0  15481-2 0  9994
2 67451  42.9999   2.8273 0001170 266.1069  93.9657 15.50587388  5327
